{
  "type": "FeatureCollection",
  "features": [
    {
      "type": "Feature",
      "properties": {
        "norad_id": 42917,
        "name": "QZS-3 (QZSS/PRN 199)",
        "group": "gnss",
        "lat": 0.003998690254120211,
        "lon": 172.1766732202844,
        "alt_km": 35790.792627161616,
        "timestamp": "2025-12-25T20:42:38.932815+00:00",
        "meta_object_name": "QZS-3 (QZSS/PRN 199)",
        "meta_object_id": "2017-048A",
        "meta_epoch": "2025-12-25T04:50:38.681376",
        "meta_mean_motion": 1.00265271,
        "meta_eccentricity": 0.00020018,
        "meta_inclination": 0.0617,
        "meta_ra_of_asc_node": 178.163,
        "meta_arg_of_pericenter": 103.2559,
        "meta_mean_anomaly": 12.1494,
        "meta_ephemeris_type": 0,
        "meta_classification_type": "U",
        "meta_norad_cat_id": 42917,
        "meta_element_set_no": 999,
        "meta_rev_at_epoch": 3051,
        "meta_bstar": 0,
        "meta_mean_motion_dot": -3.27e-06,
        "meta_mean_motion_ddot": 0,
        "tle_line1": "1 42917U 17048A   25359.20183659 -.00000327  00000+0  00000+0 0  9992",
        "tle_line2": "2 42917   0.0617 178.1630 0002001 103.2559  12.1494  1.00265271 30517"
      },
      "geometry": {
        "type": "Point",
        "coordinates": [
          172.1766732202844,
          0.003998690254120211
        ]
      }
    },
    {
      "type": "Feature",
      "properties": {
        "norad_id": 42939,
        "name": "COSMOS 2522 (752)",
        "group": "gnss",
        "lat": -62.085007407675846,
        "lon": 131.08864610178375,
        "alt_km": 19127.732494517684,
        "timestamp": "2025-12-25T20:42:38.932830+00:00",
        "meta_object_name": "COSMOS 2522 (752)",
        "meta_object_id": "2017-055A",
        "meta_epoch": "2025-12-24T02:08:41.637984",
        "meta_mean_motion": 2.13102066,
        "meta_eccentricity": 0.00062718,
        "meta_inclination": 64.0767,
        "meta_ra_of_asc_node": 197.8423,
        "meta_arg_of_pericenter": 223.2382,
        "meta_mean_anomaly": 136.7706,
        "meta_ephemeris_type": 0,
        "meta_classification_type": "U",
        "meta_norad_cat_id": 42939,
        "meta_element_set_no": 999,
        "meta_rev_at_epoch": 6424,
        "meta_bstar": 0,
        "meta_mean_motion_dot": 9.8e-07,
        "meta_mean_motion_ddot": 0,
        "tle_line1": "1 42939U 17055A   25358.08937081  .00000098  00000+0  00000+0 0  9999",
        "tle_line2": "2 42939  64.0767 197.8423 0006271 223.2382 136.7706  2.13102066 64248"
      },
      "geometry": {
        "type": "Point",
        "coordinates": [
          131.08864610178375,
          -62.085007407675846
        ]
      }
    },
    {
      "type": "Feature",
      "properties": {
        "norad_id": 42965,
        "name": "QZS-4 (QZSS/PRN 195)",
        "group": "gnss",
        "lat": -5.071211707112827,
        "lon": 171.70811738726357,
        "alt_km": 35031.23116469513,
        "timestamp": "2025-12-25T20:42:38.932846+00:00",
        "meta_object_name": "QZS-4 (QZSS/PRN 195)",
        "meta_object_id": "2017-062A",
        "meta_epoch": "2025-12-24T19:47:03.643008",
        "meta_mean_motion": 1.00301022,
        "meta_eccentricity": 0.0751986,
        "meta_inclination": 40.2171,
        "meta_ra_of_asc_node": 345.7144,
        "meta_arg_of_pericenter": 268.3083,
        "meta_mean_anomaly": 272.9513,
        "meta_ephemeris_type": 0,
        "meta_classification_type": "U",
        "meta_norad_cat_id": 42965,
        "meta_element_set_no": 999,
        "meta_rev_at_epoch": 3005,
        "meta_bstar": 0,
        "meta_mean_motion_dot": -3.02e-06,
        "meta_mean_motion_ddot": 0,
        "tle_line1": "1 42965U 17062A   25358.82434772 -.00000302  00000+0  00000+0 0  9996",
        "tle_line2": "2 42965  40.2171 345.7144 0751986 268.3083 272.9513  1.00301022 30053"
      },
      "geometry": {
        "type": "Point",
        "coordinates": [
          171.70811738726357,
          -5.071211707112827
        ]
      }
    },
    {
      "type": "Feature",
      "properties": {
        "norad_id": 43001,
        "name": "BEIDOU-3 M1 (C19)",
        "group": "gnss",
        "lat": 50.90906733062731,
        "lon": -165.58311081474923,
        "alt_km": 21548.857134503294,
        "timestamp": "2025-12-25T20:42:38.932858+00:00",
        "meta_object_name": "BEIDOU-3 M1 (C19)",
        "meta_object_id": "2017-069A",
        "meta_epoch": "2025-12-25T03:49:47.920224",
        "meta_mean_motion": 1.86231313,
        "meta_eccentricity": 0.00097895,
        "meta_inclination": 56.5365,
        "meta_ra_of_asc_node": 68.8241,
        "meta_arg_of_pericenter": 302.2681,
        "meta_mean_anomaly": 57.6912,
        "meta_ephemeris_type": 0,
        "meta_classification_type": "U",
        "meta_norad_cat_id": 43001,
        "meta_element_set_no": 999,
        "meta_rev_at_epoch": 5536,
        "meta_bstar": 0,
        "meta_mean_motion_dot": -2.5e-07,
        "meta_mean_motion_ddot": 0,
        "tle_line1": "1 43001U 17069A   25359.15958241 -.00000025  00000+0  00000+0 0  9996",
        "tle_line2": "2 43001  56.5365  68.8241 0009789 302.2681  57.6912  1.86231313 55361"
      },
      "geometry": {
        "type": "Point",
        "coordinates": [
          -165.58311081474923,
          50.90906733062731
        ]
      }
    },
    {
      "type": "Feature",
      "properties": {
        "norad_id": 43002,
        "name": "BEIDOU-3 M2 (C20)",
        "group": "gnss",
        "lat": 22.351727926397338,
        "lon": -126.90802409465371,
        "alt_km": 21544.111473395133,
        "timestamp": "2025-12-25T20:42:38.932869+00:00",
        "meta_object_name": "BEIDOU-3 M2 (C20)",
        "meta_object_id": "2017-069B",
        "meta_epoch": "2025-12-25T02:21:04.022208",
        "meta_mean_motion": 1.86231059,
        "meta_eccentricity": 0.00067389,
        "meta_inclination": 56.5361,
        "meta_ra_of_asc_node": 68.8616,
        "meta_arg_of_pericenter": 327.75,
        "meta_mean_anomaly": 32.2629,
        "meta_ephemeris_type": 0,
        "meta_classification_type": "U",
        "meta_norad_cat_id": 43002,
        "meta_element_set_no": 999,
        "meta_rev_at_epoch": 5535,
        "meta_bstar": 0,
        "meta_mean_motion_dot": -2.5e-07,
        "meta_mean_motion_ddot": 0,
        "tle_line1": "1 43002U 17069B   25359.09796322 -.00000025  00000+0  00000+0 0  9990",
        "tle_line2": "2 43002  56.5361  68.8616 0006738 327.7500  32.2629  1.86231059 55357"
      },
      "geometry": {
        "type": "Point",
        "coordinates": [
          -126.90802409465371,
          22.351727926397338
        ]
      }
    },
    {
      "type": "Feature",
      "properties": {
        "norad_id": 43055,
        "name": "GSAT0215 (GALILEO 19)",
        "group": "gnss",
        "lat": -49.62271020628828,
        "lon": 171.21921474291062,
        "alt_km": 23225.949364656986,
        "timestamp": "2025-12-25T20:42:38.932880+00:00",
        "meta_object_name": "GSAT0215 (GALILEO 19)",
        "meta_object_id": "2017-079A",
        "meta_epoch": "2025-12-24T05:08:42.877824",
        "meta_mean_motion": 1.70473983,
        "meta_eccentricity": 0.00011857,
        "meta_inclination": 55.1264,
        "meta_ra_of_asc_node": 226.3216,
        "meta_arg_of_pericenter": 351.3988,
        "meta_mean_anomaly": 8.6951,
        "meta_ephemeris_type": 0,
        "meta_classification_type": "U",
        "meta_norad_cat_id": 43055,
        "meta_element_set_no": 999,
        "meta_rev_at_epoch": 5000,
        "meta_bstar": 0,
        "meta_mean_motion_dot": 7.2e-07,
        "meta_mean_motion_ddot": 0,
        "tle_line1": "1 43055U 17079A   25358.21438516  .00000072  00000+0  00000+0 0  9991",
        "tle_line2": "2 43055  55.1264 226.3216 0001185 351.3988   8.6951  1.70473983 50002"
      },
      "geometry": {
        "type": "Point",
        "coordinates": [
          171.21921474291062,
          -49.62271020628828
        ]
      }
    },
    {
      "type": "Feature",
      "properties": {
        "norad_id": 43056,
        "name": "GSAT0216 (GALILEO 20)",
        "group": "gnss",
        "lat": 49.01454845048831,
        "lon": -7.073013555379983,
        "alt_km": 23222.110696417414,
        "timestamp": "2025-12-25T20:42:38.932894+00:00",
        "meta_object_name": "GSAT0216 (GALILEO 20)",
        "meta_object_id": "2017-079B",
        "meta_epoch": "2025-12-22T17:54:08.003808",
        "meta_mean_motion": 1.70474127,
        "meta_eccentricity": 0.00023154,
        "meta_inclination": 55.1272,
        "meta_ra_of_asc_node": 226.3621,
        "meta_arg_of_pericenter": 325.7724,
        "meta_mean_anomaly": 34.3161,
        "meta_ephemeris_type": 0,
        "meta_classification_type": "U",
        "meta_norad_cat_id": 43056,
        "meta_element_set_no": 999,
        "meta_rev_at_epoch": 4999,
        "meta_bstar": 0,
        "meta_mean_motion_dot": 7.3e-07,
        "meta_mean_motion_ddot": 0,
        "tle_line1": "1 43056U 17079B   25356.74592597  .00000073  00000+0  00000+0 0  9999",
        "tle_line2": "2 43056  55.1272 226.3621 0002315 325.7724  34.3161  1.70474127 49997"
      },
      "geometry": {
        "type": "Point",
        "coordinates": [
          -7.073013555379983,
          49.01454845048831
        ]
      }
    }
  ]
}